[{"OBJECT_NAME":"ONEWEB-0563","OBJECT_ID":"2023-029E","EPOCH":"2025-12-16T08:09:20.318400","MEAN_MOTION":13.20770024,"ECCENTRICITY":0.00020891,"INCLINATION":87.9203,"RA_OF_ASC_NODE":310.9597,"ARG_OF_PERICENTER":79.4492,"MEAN_ANOMALY":280.6877,"EPHEMERIS_TYPE":0,"CLASSIFICATION_TYPE":"U","NORAD_CAT_ID":55800,"ELEMENT_SET_NO":999,"REV_AT_EPOCH":13700,"BSTAR":7.1368682e-5,"MEAN_MOTION_DOT":4.2e-7,"MEAN_MOTION_DDOT":0},{"OBJECT_NAME":"ONEWEB-0564","OBJECT_ID":"2023-029F","EPOCH":"2025-12-16T08:00:15.317568","MEAN_MOTION":13.2076617,"ECCENTRICITY":0.0001931,"INCLINATION":87.9197,"RA_OF_ASC_NODE":310.9366,"ARG_OF_PERICENTER":93.0899,"MEAN_ANOMALY":267.0456,"EPHEMERIS_TYPE":0,"CLASSIFICATION_TYPE":"U","NORAD_CAT_ID":55801,"ELEMENT_SET_NO":999,"REV_AT_EPOCH":13701,"BSTAR":0.0024932961,"MEAN_MOTION_DOT":1.027e-5,"MEAN_MOTION_DDOT":0},{"OBJECT_NAME":"ONEWEB-0638","OBJECT_ID":"2023-029G","EPOCH":"2025-12-16T07:54:54.554976","MEAN_MOTION":13.14504451,"ECCENTRICITY":0.00021939,"INCLINATION":87.8987,"RA_OF_ASC_NODE":326.1988,"ARG_OF_PERICENTER":93.1674,"MEAN_ANOMALY":266.9707,"EPHEMERIS_TYPE":0,"CLASSIFICATION_TYPE":"U","NORAD_CAT_ID":55802,"ELEMENT_SET_NO":999,"REV_AT_EPOCH":13537,"BSTAR":0.00014252668,"MEAN_MOTION_DOT":6.6e-7,"MEAN_MOTION_DDOT":0},{"OBJECT_NAME":"ONEWEB-0639","OBJECT_ID":"2023-029H","EPOCH":"2025-12-16T05:42:11.385792","MEAN_MOTION":13.1972537,"ECCENTRICITY":0.00024114,"INCLINATION":87.9193,"RA_OF_ASC_NODE":341.3828,"ARG_OF_PERICENTER":61.807,"MEAN_ANOMALY":298.3306,"EPHEMERIS_TYPE":0,"CLASSIFICATION_TYPE":"U","NORAD_CAT_ID":55803,"ELEMENT_SET_NO":999,"REV_AT_EPOCH":13477,"BSTAR":0.00028058348,"MEAN_MOTION_DOT":1.25e-6,"MEAN_MOTION_DDOT":0},{"OBJECT_NAME":"ONEWEB-0640","OBJECT_ID":"2023-029J","EPOCH":"2025-12-16T08:08:36.015072","MEAN_MOTION":13.14504003,"ECCENTRICITY":0.00026024,"INCLINATION":87.8991,"RA_OF_ASC_NODE":326.1846,"ARG_OF_PERICENTER":85.5777,"MEAN_ANOMALY":274.565,"EPHEMERIS_TYPE":0,"CLASSIFICATION_TYPE":"U","NORAD_CAT_ID":55804,"ELEMENT_SET_NO":999,"REV_AT_EPOCH":13539,"BSTAR":-0.00031068255,"MEAN_MOTION_DOT":-1.02e-6,"MEAN_MOTION_DDOT":0},{"OBJECT_NAME":"ONEWEB-0641","OBJECT_ID":"2023-029K","EPOCH":"2025-12-16T05:35:21.690816","MEAN_MOTION":13.19725569,"ECCENTRICITY":0.00018541,"INCLINATION":87.9201,"RA_OF_ASC_NODE":341.3651,"ARG_OF_PERICENTER":82.0961,"MEAN_ANOMALY":278.0382,"EPHEMERIS_TYPE":0,"CLASSIFICATION_TYPE":"U","NORAD_CAT_ID":55805,"ELEMENT_SET_NO":999,"REV_AT_EPOCH":13478,"BSTAR":6.2357619e-5,"MEAN_MOTION_DOT":3.8e-7,"MEAN_MOTION_DDOT":0},{"OBJECT_NAME":"ONEWEB-0642","OBJECT_ID":"2023-029L","EPOCH":"2025-12-16T05:28:32.446848","MEAN_MOTION":13.19725805,"ECCENTRICITY":0.00020388,"INCLINATION":87.9191,"RA_OF_ASC_NODE":341.3889,"ARG_OF_PERICENTER":61.7406,"MEAN_ANOMALY":298.3932,"EPHEMERIS_TYPE":0,"CLASSIFICATION_TYPE":"U","NORAD_CAT_ID":55806,"ELEMENT_SET_NO":999,"REV_AT_EPOCH":13477,"BSTAR":0.00011092075,"MEAN_MOTION_DOT":5.7e-7,"MEAN_MOTION_DDOT":0},{"OBJECT_NAME":"ONEWEB-0643","OBJECT_ID":"2023-029M","EPOCH":"2025-12-16T07:25:12.580032","MEAN_MOTION":13.14504166,"ECCENTRICITY":0.00017158,"INCLINATION":87.8993,"RA_OF_ASC_NODE":326.177,"ARG_OF_PERICENTER":61.2345,"MEAN_ANOMALY":298.8957,"EPHEMERIS_TYPE":0,"CLASSIFICATION_TYPE":"U","NORAD_CAT_ID":55807,"ELEMENT_SET_NO":999,"REV_AT_EPOCH":13536,"BSTAR":0.00049843861,"MEAN_MOTION_DOT":1.98e-6,"MEAN_MOTION_DDOT":0},{"OBJECT_NAME":"ONEWEB-0644","OBJECT_ID":"2023-029N","EPOCH":"2025-12-15T23:54:11.209248","MEAN_MOTION":13.1972716,"ECCENTRICITY":0.00018314,"INCLINATION":87.919,"RA_OF_ASC_NODE":341.4447,"ARG_OF_PERICENTER":74.9514,"MEAN_ANOMALY":285.1822,"EPHEMERIS_TYPE":0,"CLASSIFICATION_TYPE":"U","NORAD_CAT_ID":55808,"ELEMENT_SET_NO":999,"REV_AT_EPOCH":13474,"BSTAR":0.00017044246,"MEAN_MOTION_DOT":8.1e-7,"MEAN_MOTION_DDOT":0},{"OBJECT_NAME":"ONEWEB-0645","OBJECT_ID":"2023-029P","EPOCH":"2025-12-16T00:26:01.846752","MEAN_MOTION":13.19723601,"ECCENTRICITY":0.00022589,"INCLINATION":87.9188,"RA_OF_ASC_NODE":341.4338,"ARG_OF_PERICENTER":77.4538,"MEAN_ANOMALY":282.6847,"EPHEMERIS_TYPE":0,"CLASSIFICATION_TYPE":"U","NORAD_CAT_ID":55809,"ELEMENT_SET_NO":999,"REV_AT_EPOCH":13474,"BSTAR":-6.3874554e-5,"MEAN_MOTION_DOT":-1.3e-7,"MEAN_MOTION_DDOT":0},{"OBJECT_NAME":"ONEWEB-0646","OBJECT_ID":"2023-029Q","EPOCH":"2025-12-16T08:07:45.367392","MEAN_MOTION":13.19724053,"ECCENTRICITY":0.00018159,"INCLINATION":87.9201,"RA_OF_ASC_NODE":341.3615,"ARG_OF_PERICENTER":78.0604,"MEAN_ANOMALY":282.0732,"EPHEMERIS_TYPE":0,"CLASSIFICATION_TYPE":"U","NORAD_CAT_ID":55810,"ELEMENT_SET_NO":999,"REV_AT_EPOCH":13477,"BSTAR":-1.5563792e-5,"MEAN_MOTION_DOT":7.0e-8,"MEAN_MOTION_DDOT":0},{"OBJECT_NAME":"ONEWEB-0648","OBJECT_ID":"2023-029R","EPOCH":"2025-12-15T23:21:05.928192","MEAN_MOTION":13.14501793,"ECCENTRICITY":0.00025293,"INCLINATION":87.8994,"RA_OF_ASC_NODE":326.2056,"ARG_OF_PERICENTER":66.8664,"MEAN_ANOMALY":293.2732,"EPHEMERIS_TYPE":0,"CLASSIFICATION_TYPE":"U","NORAD_CAT_ID":55811,"ELEMENT_SET_NO":999,"REV_AT_EPOCH":13532,"BSTAR":-0.0015127812,"MEAN_MOTION_DOT":-5.48e-6,"MEAN_MOTION_DDOT":0},{"OBJECT_NAME":"ONEWEB-0649","OBJECT_ID":"2023-029S","EPOCH":"2025-12-16T01:27:26.332416","MEAN_MOTION":13.19724952,"ECCENTRICITY":0.00020634,"INCLINATION":87.92,"RA_OF_ASC_NODE":341.4135,"ARG_OF_PERICENTER":77.2129,"MEAN_ANOMALY":282.9235,"EPHEMERIS_TYPE":0,"CLASSIFICATION_TYPE":"U","NORAD_CAT_ID":55812,"ELEMENT_SET_NO":999,"REV_AT_EPOCH":13477,"BSTAR":-0.00012210297,"MEAN_MOTION_DOT":-3.6e-7,"MEAN_MOTION_DDOT":0},{"OBJECT_NAME":"ONEWEB-0650","OBJECT_ID":"2023-029T","EPOCH":"2025-12-16T06:48:08.415072","MEAN_MOTION":13.19723914,"ECCENTRICITY":0.00019614,"INCLINATION":87.9191,"RA_OF_ASC_NODE":341.3749,"ARG_OF_PERICENTER":73.0074,"MEAN_ANOMALY":287.1273,"EPHEMERIS_TYPE":0,"CLASSIFICATION_TYPE":"U","NORAD_CAT_ID":55813,"ELEMENT_SET_NO":999,"REV_AT_EPOCH":13477,"BSTAR":1.1526358e-5,"MEAN_MOTION_DOT":1.8e-7,"MEAN_MOTION_DDOT":0},{"OBJECT_NAME":"ONEWEB-0652","OBJECT_ID":"2023-029U","EPOCH":"2025-12-16T08:01:45.133824","MEAN_MOTION":13.14503853,"ECCENTRICITY":0.00017069,"INCLINATION":87.8991,"RA_OF_ASC_NODE":326.1538,"ARG_OF_PERICENTER":89.0326,"MEAN_ANOMALY":271.0999,"EPHEMERIS_TYPE":0,"CLASSIFICATION_TYPE":"U","NORAD_CAT_ID":55814,"ELEMENT_SET_NO":999,"REV_AT_EPOCH":13534,"BSTAR":-9.0939105e-5,"MEAN_MOTION_DOT":-2.1e-7,"MEAN_MOTION_DDOT":0},{"OBJECT_NAME":"ONEWEB-0653","OBJECT_ID":"2023-029V","EPOCH":"2025-12-16T07:38:55.062240","MEAN_MOTION":13.14504159,"ECCENTRICITY":0.00018965,"INCLINATION":87.8989,"RA_OF_ASC_NODE":326.1465,"ARG_OF_PERICENTER":88.568,"MEAN_ANOMALY":271.5667,"EPHEMERIS_TYPE":0,"CLASSIFICATION_TYPE":"U","NORAD_CAT_ID":55815,"ELEMENT_SET_NO":999,"REV_AT_EPOCH":13537,"BSTAR":0.00048636643,"MEAN_MOTION_DOT":1.93e-6,"MEAN_MOTION_DDOT":0},{"OBJECT_NAME":"ONEWEB-0654","OBJECT_ID":"2023-029W","EPOCH":"2025-12-16T07:32:03.771456","MEAN_MOTION":13.14504648,"ECCENTRICITY":0.00017482,"INCLINATION":87.899,"RA_OF_ASC_NODE":326.1469,"ARG_OF_PERICENTER":96.0865,"MEAN_ANOMALY":264.0464,"EPHEMERIS_TYPE":0,"CLASSIFICATION_TYPE":"U","NORAD_CAT_ID":55816,"ELEMENT_SET_NO":999,"REV_AT_EPOCH":13539,"BSTAR":0.00065771853,"MEAN_MOTION_DOT":2.57e-6,"MEAN_MOTION_DDOT":0}]
