ONEWEB-0563             
1 55800U 23029E   25350.33981850  .00000042  00000+0  71369-4 0  9991
2 55800  87.9203 310.9597 0002089  79.4492 280.6877 13.20770024137002
ONEWEB-0564             
1 55801U 23029F   25350.33351062  .00001027  00000+0  24933-2 0  9995
2 55801  87.9197 310.9366 0001931  93.0899 267.0456 13.20766170137017
ONEWEB-0638             
1 55802U 23029G   25350.32979809  .00000066  00000+0  14253-3 0  9997
2 55802  87.8987 326.1988 0002193  93.1674 266.9707 13.14504451135375
ONEWEB-0639             
1 55803U 23029H   25350.23763178  .00000125  00000+0  28058-3 0  9992
2 55803  87.9193 341.3828 0002411  61.8070 298.3306 13.19725370134770
ONEWEB-0640             
1 55804U 23029J   25350.33930573 -.00000102  00000+0 -31068-3 0  9991
2 55804  87.8991 326.1846 0002602  85.5777 274.5650 13.14504003135396
ONEWEB-0641             
1 55805U 23029K   25350.23288994  .00000038  00000+0  62358-4 0  9997
2 55805  87.9201 341.3651 0001854  82.0961 278.0382 13.19725569134780
ONEWEB-0642             
1 55806U 23029L   25350.22815332  .00000057  00000+0  11092-3 0  9998
2 55806  87.9191 341.3889 0002038  61.7406 298.3932 13.19725805134773
ONEWEB-0643             
1 55807U 23029M   25350.30917338  .00000198  00000+0  49844-3 0  9999
2 55807  87.8993 326.1770 0001715  61.2345 298.8957 13.14504166135369
ONEWEB-0644             
1 55808U 23029N   25349.99596307  .00000081  00000+0  17044-3 0  9990
2 55808  87.9190 341.4447 0001831  74.9514 285.1822 13.19727160134746
ONEWEB-0645             
1 55809U 23029P   25350.01807693 -.00000013  00000+0 -63875-4 0  9990
2 55809  87.9188 341.4338 0002258  77.4538 282.6847 13.19723601134746
ONEWEB-0646             
1 55810U 23029Q   25350.33871953  .00000007  00000+0 -15564-4 0  9991
2 55810  87.9201 341.3615 0001815  78.0604 282.0732 13.19724053134772
ONEWEB-0648             
1 55811U 23029R   25349.97298528 -.00000548  00000+0 -15128-2 0  9996
2 55811  87.8994 326.2056 0002529  66.8664 293.2732 13.14501793135321
ONEWEB-0649             
1 55812U 23029S   25350.06072144 -.00000036  00000+0 -12210-3 0  9995
2 55812  87.9200 341.4135 0002063  77.2129 282.9235 13.19724952134775
ONEWEB-0650             
1 55813U 23029T   25350.28343073  .00000018  00000+0  11526-4 0  9990
2 55813  87.9191 341.3749 0001961  73.0074 287.1273 13.19723914134770
ONEWEB-0652             
1 55814U 23029U   25350.33455016 -.00000021  00000+0 -90939-4 0  9999
2 55814  87.8991 326.1538 0001706  89.0326 271.0999 13.14503853135343
ONEWEB-0653             
1 55815U 23029V   25350.31869285  .00000193  00000+0  48637-3 0  9990
2 55815  87.8989 326.1465 0001896  88.5680 271.5667 13.14504159135377
ONEWEB-0654             
1 55816U 23029W   25350.31393254  .00000257  00000+0  65772-3 0  9999
2 55816  87.8990 326.1469 0001748  96.0865 264.0464 13.14504648135396
